2022-019M               
1 51835U 22019M   22061.15361431  .00003716  00000+0  23495-3 0  9993
2 51835  97.5228 137.8916 0015417 265.7963  94.1505 15.09542948   458
2022-019N               
1 51836U 22019N   22061.21983778  .00004690  00000+0  29517-3 0  9998
2 51836  97.5223 137.9615 0015342 265.6163  94.3313 15.09579170   466
2022-019P               
1 51837U 22019P   22060.95438407  .00003610  00000+0  22718-3 0  9990
2 51837  97.5169 137.6966 0014621 266.7205  93.2352 15.09741606   422
2022-019Q               
1 51838U 22019Q   22060.95428280  .00002620  00000+0  16577-3 0  9995
2 51838  97.5223 137.7045 0014264 265.6395  94.3206 15.09794392   424
2022-019R               
1 51839U 22019R   22061.15309936  .00002868  00000+0  18106-3 0  9999
2 51839  97.5217 137.8938 0014276 264.6890  95.2713 15.09801689   456
2022-019S               
1 51840U 22019S   22060.88795490  .00002345  00000+0  14871-3 0  9999
2 51840  97.5214 137.6336 0014219 263.4402  96.5209 15.09822329   412
2022-019T               
1 51841U 22019T   22061.15292828  .00003480  00000+0  21835-3 0  9997
2 51841  97.5214 137.8978 0014009 262.2803  97.6837 15.09890310   454
2022-019U               
1 51842U 22019U   22061.19494962  .00004850  00000+0  20130-3 0  9994
2 51842  97.5686 138.0261 0071258 202.4718 157.3393 15.22006297   466
2022-019V               
1 51843U 22019V   22060.95397256  .00002938  00000+0  18457-3 0  9990
2 51843  97.5246 137.7042 0014425 270.1791  89.7952 15.09962356   425
2022-019W               
1 51844U 22019W   22060.88932973  .00001761  00000+0  11488-3 0  9994
2 51844  97.5215 137.6362 0016957 268.3703  91.5576 15.09058551   314
2022-019X               
1 51845U 22019X   22060.88828360  .00003646  00000+0  22999-3 0  9992
2 51845  97.5217 137.6382 0015211 265.0838  94.8655 15.09642026   336
2022-019Y               
1 51846U 22019Y   22061.15331075  .00003696  00000+0  23275-3 0  9999
2 51846  97.5199 137.9016 0015137 262.1349  97.8165 15.09696260   377
STRIX-BETA              
1 51847U 22020A   22061.22117439 -.00000062  00000+0  00000+0 0  9998
2 51847  97.7757 114.9936 0013018 287.7962  72.1852 15.00975288   208
ELECTRON KICK STAGE     
1 51848U 20020B   22060.94400103  .00006061  00000+0  29802-3 0  9997
2 51848  97.0934 113.8573 0061062  27.4706 332.9754 15.16705856   163
ELECTRON STAGE 2        
1 51849U 20020C   22061.30063111  .01051969  23467-5  10337-2 0  9991
2 51849  97.7317 115.0821 0303900 217.8488 140.1054 15.59785214   219
2022-021A               
1 51850U 22022A   22061.17282069 -.00000182  00000+0  00000+0 0  9993
2 51850   9.4029 334.4567 4634126 179.6693 180.8159  1.80782982    01
2022-021B               
1 51851U 22022B   22061.08993209 -.00000179  00000+0  00000+0 0  9995
2 51851   9.8132 333.0241 4737793 179.3247 129.4900  1.84800964    09
